{"type": "FeatureCollection", "features": [ {"type": "Feature", "properties": {"norad_id": 66608, "name": "STARLINK-36036", "group": "last-30-days", "lat": 38.96686663802375, "lon": -103.74657072277436, "alt_km": 410.43783491192517, "timestamp": "2025-12-12T03:50:51.177395+00:00", "meta": {"OBJECT_NAME": "STARLINK-36036", "OBJECT_ID": "2025-270W", "EPOCH": "2025-12-11T14:00:01.999872", "MEAN_MOTION": 15.50620768, "ECCENTRICITY": 0.00018502, "INCLINATION": 43, "RA_OF_ASC_NODE": 199.4039, "ARG_OF_PERICENTER": 250.0033, "MEAN_ANOMALY": 192.9019, "EPHEMERIS_TYPE": 0, "CLASSIFICATION_TYPE": "U", "NORAD_CAT_ID": 66608, "ELEMENT_SET_NO": 999, "REV_AT_EPOCH": 405, "BSTAR": -0.0023409335, "MEAN_MOTION_DOT": -0.0013553, "MEAN_MOTION_DDOT": 0}, "tle": {"line1": "1 66608U 25270W   25345.58335648 -.00135530  00000+0 -23409-2 0  9991", "line2": "2 66608  43.0000 199.4039 0001850 250.0033 192.9019 15.50620768  4057"}}, "geometry": {"type": "Point", "coordinates": [-103.74657072277436, 38.96686663802375]}}, {"type": "Feature", "properties": {"norad_id": 66609, "name": "STARLINK-36034", "group": "last-30-days", "lat": 39.595271665451584, "lon": -101.398369480927, "alt_km": 410.3720927154518, "timestamp": "2025-12-12T03:50:51.177407+00:00", "meta": {"OBJECT_NAME": "STARLINK-36034", "OBJECT_ID": "2025-270X", "EPOCH": "2025-12-11T14:00:01.999872", "MEAN_MOTION": 15.50598637, "ECCENTRICITY": 0.00020575, "INCLINATION": 42.9998, "RA_OF_ASC_NODE": 199.3998, "ARG_OF_PERICENTER": 257.7319, "MEAN_ANOMALY": 187.0898, "EPHEMERIS_TYPE": 0, "CLASSIFICATION_TYPE": "U", "NORAD_CAT_ID": 66609, "ELEMENT_SET_NO": 999, "REV_AT_EPOCH": 405, "BSTAR": -0.0016247374, "MEAN_MOTION_DOT": -0.00094587, "MEAN_MOTION_DDOT": 0}, "tle": {"line1": "1 66609U 25270X   25345.58335648 -.00094587  00000+0 -16247-2 0  9990", "line2": "2 66609  42.9998 199.3998 0002057 257.7319 187.0898 15.50598637  4055"}}, "geometry": {"type": "Point", "coordinates": [-101.398369480927, 39.595271665451584]}}, {"type": "Feature", "properties": {"norad_id": 66610, "name": "STARLINK-35680", "group": "last-30-days", "lat": 40.17466936431666, "lon": -99.01418383878743, "alt_km": 410.265224821409, "timestamp": "2025-12-12T03:50:51.177417+00:00", "meta": {"OBJECT_NAME": "STARLINK-35680", "OBJECT_ID": "2025-270Y", "EPOCH": "2025-12-11T14:00:01.999872", "MEAN_MOTION": 15.50593002, "ECCENTRICITY": 0.00020646, "INCLINATION": 42.9999, "RA_OF_ASC_NODE": 199.3947, "ARG_OF_PERICENTER": 262.5042, "MEAN_ANOMALY": 184.2411, "EPHEMERIS_TYPE": 0, "CLASSIFICATION_TYPE": "U", "NORAD_CAT_ID": 66610, "ELEMENT_SET_NO": 999, "REV_AT_EPOCH": 432, "BSTAR": -0.0015241738, "MEAN_MOTION_DOT": -0.000888, "MEAN_MOTION_DDOT": 0}, "tle": {"line1": "1 66610U 25270Y   25345.58335648 -.00088800  00000+0 -15242-2 0  9997", "line2": "2 66610  42.9999 199.3947 0002064 262.5042 184.2411 15.50593002  4328"}}, "geometry": {"type": "Point", "coordinates": [-99.01418383878743, 40.17466936431666]}}, {"type": "Feature", "properties": {"norad_id": 66611, "name": "STARLINK-35583", "group": "last-30-days", "lat": 40.70203295111675, "lon": -96.6000229682522, "alt_km": 410.2508284291962, "timestamp": "2025-12-12T03:50:51.177427+00:00", "meta": {"OBJECT_NAME": "STARLINK-35583", "OBJECT_ID": "2025-270Z", "EPOCH": "2025-12-11T14:00:01.999872", "MEAN_MOTION": 15.5059709, "ECCENTRICITY": 0.0002107, "INCLINATION": 42.9998, "RA_OF_ASC_NODE": 199.3895, "ARG_OF_PERICENTER": 260.8767, "MEAN_ANOMALY": 187.7845, "EPHEMERIS_TYPE": 0, "CLASSIFICATION_TYPE": "U", "NORAD_CAT_ID": 66611, "ELEMENT_SET_NO": 999, "REV_AT_EPOCH": 432, "BSTAR": -0.0016707496, "MEAN_MOTION_DOT": -0.00097218, "MEAN_MOTION_DDOT": 0}, "tle": {"line1": "1 66611U 25270Z   25345.58335648 -.00097218  00000+0 -16707-2 0  9998", "line2": "2 66611  42.9998 199.3895 0002107 260.8767 187.7845 15.50597090  4323"}}, "geometry": {"type": "Point", "coordinates": [-96.6000229682522, 40.70203295111675]}}, {"type": "Feature", "properties": {"norad_id": 66612, "name": "STARLINK-36039", "group": "last-30-days", "lat": 40.73393749257493, "lon": -96.44495608697167, "alt_km": 416.1150548549076, "timestamp": "2025-12-12T03:50:51.177437+00:00", "meta": {"OBJECT_NAME": "STARLINK-36039", "OBJECT_ID": "2025-270AA", "EPOCH": "2025-12-11T14:00:01.999872", "MEAN_MOTION": 15.50908783, "ECCENTRICITY": 0.00018398, "INCLINATION": 42.9996, "RA_OF_ASC_NODE": 199.3838, "ARG_OF_PERICENTER": 267.5205, "MEAN_ANOMALY": 183.0167, "EPHEMERIS_TYPE": 0, "CLASSIFICATION_TYPE": "U", "NORAD_CAT_ID": 66612, "ELEMENT_SET_NO": 999, "REV_AT_EPOCH": 421, "BSTAR": -0.036416783, "MEAN_MOTION_DOT": -0.01938578, "MEAN_MOTION_DDOT": 0}, "tle": {"line1": "1 66612U 25270AA  25345.58335648 -.01938578  00000+0 -36417-1 0  9992", "line2": "2 66612  42.9996 199.3838 0001839 267.5205 183.0167 15.50908783  4210"}}, "geometry": {"type": "Point", "coordinates": [-96.44495608697167, 40.73393749257493]}}, {"type": "Feature", "properties": {"norad_id": 66613, "name": "STARLINK-36037", "group": "last-30-days", "lat": 41.60842021594208, "lon": -91.61932690068613, "alt_km": 409.9978672540328, "timestamp": "2025-12-12T03:50:51.177451+00:00", "meta": {"OBJECT_NAME": "STARLINK-36037", "OBJECT_ID": "2025-270AB", "EPOCH": "2025-12-11T14:00:01.999872", "MEAN_MOTION": 15.50628588, "ECCENTRICITY": 0.0001985, "INCLINATION": 42.9996, "RA_OF_ASC_NODE": 199.379, "ARG_OF_PERICENTER": 261.927, "MEAN_ANOMALY": 190.5464, "EPHEMERIS_TYPE": 0, "CLASSIFICATION_TYPE": "U", "NORAD_CAT_ID": 66613, "ELEMENT_SET_NO": 999, "REV_AT_EPOCH": 421, "BSTAR": -0.0019024407, "MEAN_MOTION_DOT": -0.00110588, "MEAN_MOTION_DDOT": 0}, "tle": {"line1": "1 66613U 25270AB  25345.58335648 -.00110588  00000+0 -19024-2 0  9991", "line2": "2 66613  42.9996 199.3790 0001985 261.9270 190.5464 15.50628588  4215"}}, "geometry": {"type": "Point", "coordinates": [-91.61932690068613, 41.60842021594208]}}, {"type": "Feature", "properties": {"norad_id": 66614, "name": "STARLINK-36040", "group": "last-30-days", "lat": 42.282659956917584, "lon": -86.61079474602582, "alt_km": 410.05978118959865, "timestamp": "2025-12-12T03:50:51.177463+00:00", "meta": {"OBJECT_NAME": "STARLINK-36040", "OBJECT_ID": "2025-270AC", "EPOCH": "2025-12-11T14:00:01.999872", "MEAN_MOTION": 15.50616948, "ECCENTRICITY": 0.00018782, "INCLINATION": 42.9997, "RA_OF_ASC_NODE": 199.3701, "ARG_OF_PERICENTER": 265.0045, "MEAN_ANOMALY": 191.3482, "EPHEMERIS_TYPE": 0, "CLASSIFICATION_TYPE": "U", "NORAD_CAT_ID": 66614, "ELEMENT_SET_NO": 999, "REV_AT_EPOCH": 405, "BSTAR": -0.0028744458, "MEAN_MOTION_DOT": -0.00165686, "MEAN_MOTION_DDOT": 0}, "tle": {"line1": "1 66614U 25270AC  25345.58335648 -.00165686  00000+0 -28744-2 0  9990", "line2": "2 66614  42.9997 199.3701 0001878 265.0045 191.3482 15.50616948  4053"}}, "geometry": {"type": "Point", "coordinates": [-86.61079474602582, 42.282659956917584]}}, {"type": "Feature", "properties": {"norad_id": 66615, "name": "STARLINK-35988", "group": "last-30-days", "lat": 41.96374702458251, "lon": -89.19610674703372, "alt_km": 410.3996212450784, "timestamp": "2025-12-12T03:50:51.177473+00:00", "meta": {"OBJECT_NAME": "STARLINK-35988", "OBJECT_ID": "2025-270AD", "EPOCH": "2025-12-11T14:00:01.999872", "MEAN_MOTION": 15.50794523, "ECCENTRICITY": 0.00017758, "INCLINATION": 42.9997, "RA_OF_ASC_NODE": 199.3748, "ARG_OF_PERICENTER": 249.7036, "MEAN_ANOMALY": 204.6377, "EPHEMERIS_TYPE": 0, "CLASSIFICATION_TYPE": "U", "NORAD_CAT_ID": 66615, "ELEMENT_SET_NO": 999, "REV_AT_EPOCH": 405, "BSTAR": -0.0070813017, "MEAN_MOTION_DOT": -0.00398403, "MEAN_MOTION_DDOT": 0}, "tle": {"line1": "1 66615U 25270AD  25345.58335648 -.00398403  00000+0 -70813-2 0  9990", "line2": "2 66615  42.9997 199.3748 0001775 249.7036 204.6377 15.50794523  4057"}}, "geometry": {"type": "Point", "coordinates": [-89.19610674703372, 41.96374702458251]}}, {"type": "Feature", "properties": {"norad_id": 66616, "name": "STARLINK-35391", "group": "last-30-days", "lat": 42.539270353963694, "lon": -84.04245099521098, "alt_km": 410.08612215587345, "timestamp": "2025-12-12T03:50:51.177483+00:00", "meta": {"OBJECT_NAME": "STARLINK-35391", "OBJECT_ID": "2025-270AE", "EPOCH": "2025-12-11T14:00:01.999872", "MEAN_MOTION": 15.50624312, "ECCENTRICITY": 0.00019205, "INCLINATION": 42.9998, "RA_OF_ASC_NODE": 199.3654, "ARG_OF_PERICENTER": 263.6495, "MEAN_ANOMALY": 194.6204, "EPHEMERIS_TYPE": 0, "CLASSIFICATION_TYPE": "U", "NORAD_CAT_ID": 66616, "ELEMENT_SET_NO": 999, "REV_AT_EPOCH": 432, "BSTAR": -0.0031161753, "MEAN_MOTION_DOT": -0.00179329, "MEAN_MOTION_DDOT": 0}, "tle": {"line1": "1 66616U 25270AE  25345.58335648 -.00179329  00000+0 -31162-2 0  9999", "line2": "2 66616  42.9998 199.3654 0001920 263.6495 194.6204 15.50624312  4326"}}, "geometry": {"type": "Point", "coordinates": [-84.04245099521098, 42.539270353963694]}}, {"type": "Feature", "properties": {"norad_id": 66617, "name": "STARLINK-35940", "group": "last-30-days", "lat": 53.12209274322649, "lon": -77.87886446551725, "alt_km": 401.8539384099222, "timestamp": "2025-12-12T03:50:51.177493+00:00", "meta": {"OBJECT_NAME": "STARLINK-35940", "OBJECT_ID": "2025-271A", "EPOCH": "2025-12-11T14:00:01.999872", "MEAN_MOTION": 15.54900031, "ECCENTRICITY": 0.00010186, "INCLINATION": 53.1605, "RA_OF_ASC_NODE": 192.7858, "ARG_OF_PERICENTER": 90.2466, "MEAN_ANOMALY": 12.2107, "EPHEMERIS_TYPE": 0, "CLASSIFICATION_TYPE": "U", "NORAD_CAT_ID": 66617, "ELEMENT_SET_NO": 999, "REV_AT_EPOCH": 405, "BSTAR": -0.033364535, "MEAN_MOTION_DOT": -0.02027007, "MEAN_MOTION_DDOT": 0}, "tle": {"line1": "1 66617U 25271A   25345.58335648 -.02027007  00000+0 -33365-1 0  9994", "line2": "2 66617  53.1605 192.7858 0001018  90.2466  12.2107 15.54900031  4055"}}, "geometry": {"type": "Point", "coordinates": [-77.87886446551725, 53.12209274322649]}}]}